[{"OBJECT_NAME":"OUTPOST MISSION 2","OBJECT_ID":"2023-174CG","EPOCH":"2026-03-09T22:51:56.861280","MEAN_MOTION":15.50733673,"ECCENTRICITY":0.00069991,"INCLINATION":97.3967,"RA_OF_ASC_NODE":158.6721,"ARG_OF_PERICENTER":123.0505,"MEAN_ANOMALY":237.142,"EPHEMERIS_TYPE":0,"CLASSIFICATION_TYPE":"U","NORAD_CAT_ID":58334,"ELEMENT_SET_NO":999,"REV_AT_EPOCH":13041,"BSTAR":0.00067138638,"MEAN_MOTION_DOT":0.00038683,"MEAN_MOTION_DDOT":0},{"OBJECT_NAME":"OBJECT F","OBJECT_ID":"2023-104F","EPOCH":"2026-03-09T22:45:24.423840","MEAN_MOTION":15.4884614,"ECCENTRICITY":0.00205479,"INCLINATION":97.2662,"RA_OF_ASC_NODE":142.0402,"ARG_OF_PERICENTER":45.1611,"MEAN_ANOMALY":315.1305,"EPHEMERIS_TYPE":0,"CLASSIFICATION_TYPE":"U","NORAD_CAT_ID":57429,"ELEMENT_SET_NO":999,"REV_AT_EPOCH":14709,"BSTAR":0.00056008218,"MEAN_MOTION_DOT":0.00030376,"MEAN_MOTION_DDOT":0}]
